QIANFAN-17              
1 60395U 24140S   26002.24974964  .00000199  00000+0  28903-3 0  9992
2 60395  88.9788 297.3161 0015624 140.0760 220.1544 13.50981846 70907
QIANFAN-18              
1 60396U 24140T   26002.30322913  .00000195  00000+0  28253-3 0  9995
2 60396  88.9781 296.8427 0015437 123.4343 236.8287 13.50981969 70302
QIANFAN-19              
1 61552U 24185A   26002.24402325  .00000860  00000+0  44279-3 0  9993
2 61552  88.9807  75.5954 0005458 224.0523 136.0230 14.14320638 72563
QIANFAN-20              
1 61553U 24185B   26002.28482905  .00000933  00000+0  53225-3 0  9992
2 61553  88.9806  75.9353 0003629 280.2052  79.8722 14.08867764 72388
QIANFAN-21              
1 61554U 24185C   26002.28912163  .00001181  00000+0  52203-3 0  9998
2 61554  88.9722  74.5760 0008497 301.0668  58.9689 14.22640727 72896
QIANFAN-22              
1 61555U 24185D   26002.28844817  .00000321  00000+0  26670-3 0  9993
2 61555  88.9790  76.9985 0004466 299.9190  60.1537 13.86312088 71783
QIANFAN-23              
1 61556U 24185E   26002.26119436  .00000832  00000+0  41269-3 0  9992
2 61556  88.9799  75.3934 0005809 239.9761 120.0851 14.16315903 72655
QIANFAN-24              
1 61557U 24185F   26002.27448233  .00001156  00000+0  49886-3 0  9997
2 61557  88.9780  74.7632 0008114 219.6326 140.4274 14.23841850 72948
